ONEWEB-0555             
1 56057U 23043M   25084.90120163  .00000003  00000+0 -25514-4 0  9990
2 56057  87.9071 318.1344 0001435 102.6229 257.5062 13.16593680 99979
ONEWEB-0557             
1 56058U 23043N   25084.91544347 -.00000021  00000+0 -88240-4 0  9992
2 56058  87.9067 318.1556 0001906 114.3598 245.7732 13.16592704100884
ONEWEB-0558             
1 56059U 23043P   25084.94140962 -.00000314  00000+0 -79291-3 0  9991
2 56059  87.9322 333.3590 0001849  64.8525 295.2800 13.21825196 99020
ONEWEB-0559             
1 56060U 23043Q   25084.93038577  .00000136  00000+0  29729-3 0  9991
2 56060  87.9320 333.3547 0002194  74.6772 285.4605 13.21824868 99039
ONEWEB-0566             
1 56061U 23043R   25084.92407505  .00000046  00000+0  78862-4 0  9995
2 56061  87.9319 333.3552 0002064  64.4589 295.6758 13.21825359 99019
ONEWEB-0568             
1 56062U 23043S   25084.93285807  .00000210  00000+0  51482-3 0  9997
2 56062  87.9069 318.1175 0001549  90.0497 270.0812 13.16592271 99997
ONEWEB-0574             
1 56063U 23043T   25084.91775490  .00000057  00000+0  10736-3 0  9994
2 56063  87.9318 333.3463 0001599  79.7865 280.3450 13.21829011 99052
ONEWEB-0575             
1 56064U 23043U   25084.92652259  .00000100  00000+0  22790-3 0  9995
2 56064  87.9069 318.1312 0001894  97.7475 262.3871 13.16592091 99983
ONEWEB-0576             
1 56065U 23043V   25083.91957386  .00000012  00000+0 -18106-5 0  9994
2 56065  87.9069 318.3227 0001603  89.6443 270.4872 13.16593452100755
ONEWEB-0577             
1 56066U 23043W   25084.91386008 -.00000040  00000+0 -13889-3 0  9996
2 56066  87.9070 318.1251 0002104 101.6503 258.4864 13.16592350100003
ONEWEB-0578             
1 56067U 23043X   25084.45096753  .00000020  00000+0  15848-4 0  9995
2 56067  87.9323 333.4468 0001691  84.0198 276.1128 13.21827930 98950
ONEWEB-0579             
1 56068U 23043Y   25084.97138321  .00000020  00000+0  16034-4 0  9999
2 56068  87.9319 333.3321 0002068  75.5785 284.5578 13.21823785 99035
ONEWEB-0581             
1 56069U 23043Z   25084.92018971 -.00000074  00000+0 -22815-3 0  9997
2 56069  87.9067 318.1545 0002098  90.2162 269.9209 13.16591222 99974
ONEWEB-0609             
1 56070U 23043AA  25084.97791615 -.00000086  00000+0 -26252-3 0  9999
2 56070  87.9132 348.5154 0001769  75.1478 284.9848 13.15547266 97509
ONEWEB-0613             
1 56071U 23043AB  25084.97316532  .00000042  00000+0  77448-4 0  9995
2 56071  87.9136 348.5238 0002016  72.4095 287.7256 13.15548156 97501
ONEWEB-0630             
1 56072U 23043AC  25084.96840581  .00000030  00000+0  45819-4 0  9995
2 56072  87.9132 348.5055 0001985  69.7728 290.3615 13.15546877 97496
ONEWEB-0632             
1 56073U 23043AD  25084.96366648  .00000048  00000+0  92860-4 0  9990
2 56073  87.9132 348.5259 0002037  81.9790 278.1571 13.15548003 97495
ONEWEB-0633             
1 56074U 23043AE  25084.95731827  .00000153  00000+0  37191-3 0  9997
2 56074  87.9127 348.4983 0001924  64.4685 295.6644 13.15547086 97479
ONEWEB-0634             
1 56075U 23043AF  25084.03037225  .00000176  00000+0  43299-3 0  9999
2 56075  87.9134 348.7115 0001510  69.8024 290.3268 13.15549133 97340
ONEWEB-0635             
1 56076U 23043AG  25084.71013039  .00000061  00000+0  12895-3 0  9993
2 56076  87.9104 348.5855 0002055  85.5193 274.6172 13.15546496 97465
ONEWEB-0636             
1 56077U 23043AH  25084.24586840  .00000214  00000+0  53426-3 0  9992
2 56077  87.9112 348.6796 0002018  84.2133 275.9227 13.15549290 97380
ONEWEB-0637             
1 56078U 23043AJ  25084.69587940 -.00000001  00000+0 -36006-4 0  9996
2 56078  87.9131 348.5787 0001738  89.2250 270.9079 13.15549928 97461
ONEWEB-0647             
1 56079U 23043AK  25084.69112202 -.00000061  00000+0 -19502-3 0  9999
2 56079  87.9128 348.5912 0002012  78.6052 281.5304 13.15549185 97459
ONEWEB-0651             
1 56080U 23043AL  25084.68636573 -.00000097  00000+0 -29092-3 0  9996
2 56080  87.9131 348.5775 0001897  88.1805 271.9543 13.15547069 98654
ONEWEB-0718             
1 56081U 23043AM  25084.68162065 -.00000118  00000+0 -34749-3 0  9996
2 56081  87.9133 348.5626 0001353  71.9430 288.1848 13.15548483 97460
ONEWEB-0561             
1 56710U 23068A   25084.03576643  .00000041  00000+0  68153-4 0  9992
2 56710  87.9320   3.8722 0002361  87.3318 272.8085 13.20770280 90218
ONEWEB-0668             
1 56711U 23068B   25084.92256734  .00000111  00000+0  25737-3 0  9995
2 56711  87.9057 318.1133 0001130  86.3350 273.7910 13.16595384 92799
ONEWEB-0676             
1 56712U 23068C   25084.37080720 -.00000008  00000+0 -54998-4 0  9994
2 56712  87.9070 318.2495 0002214  89.3211 270.8173 13.16593364 92649
ONEWEB-0677             
1 56713U 23068D   25084.02470572 -.00000032  00000+0 -11038-3 0  9999
2 56713  87.9326   3.8469 0001849  87.6346 272.4999 13.20774570 90518
ONEWEB-0678             
1 56714U 23068E   25084.95414815  .00000195  00000+0  48337-3 0  9990
2 56714  87.9136 348.4782 0002095  72.2982 287.8377 13.15546742 90358
ONEWEB-0679             
1 56715U 23068F   25084.87190146  .00000092  00000+0  20652-3 0  9996
2 56715  87.9065 318.1447 0001639 102.2645 257.8670 13.16592918 92739
ONEWEB-0680             
1 56716U 23068G   25084.97453401  .00000066  00000+0  12779-3 0  9996
2 56716  87.9299 333.3541 0001152  92.8203 267.3063 13.21827401 91888
ONEWEB-0681             
1 56717U 23068H   25083.92502871 -.00000293  00000+0 -74044-3 0  9994
2 56717  87.9319 333.5712 0002381 101.3198 258.8203 13.21826088 91733
ONEWEB-0682             
1 56718U 23068J   25084.67605524 -.00000073  00000+0 -22731-3 0  9999
2 56718  87.9132 348.5665 0001347  89.3706 270.7579 13.15550959 90485
ONEWEB-0683             
1 56719U 23068K   25084.69745279  .00000016  00000+0  90461-5 0  9996
2 56719  87.9128 348.5335 0001485  81.5603 278.5695 13.15546586 90451
ONEWEB-0684             
1 56720U 23068L   25084.70537540  .00000074  00000+0  16351-3 0  9998
2 56720  87.9103 348.5712 0002581  45.3497 314.7843 13.15545917 90288
ONEWEB-0686             
1 56721U 23068M   25084.93760732  .00000089  00000+0  19812-3 0  9996
2 56721  87.9066 318.1682 0001435  76.9427 283.1864 13.16592082 92736
ONEWEB-0694             
1 56722U 23068N   25084.90436110 -.00000016  00000+0 -76030-4 0  9992
2 56722  87.9063 318.0934 0001348  90.8323 269.2963 13.16592820 93484
ONEWEB-0696             
1 56723U 23068P   25084.96682577  .00000045  00000+0  85709-4 0  9992
2 56723  87.9133 348.5323 0002039  71.9666 288.1686 13.15548787 90437
ONEWEB-0703             
1 56724U 23068Q   25084.97633167 -.00000049  00000+0 -16473-3 0  9992
2 56724  87.9116 348.5422 0002921  74.3834 285.7618 13.15546751 90328
ONEWEB-0721             
1 56725U 23068R   25084.47461270  .00000071  00000+0  13647-3 0  9995
2 56725  86.6787 228.4861 0001687 103.4517 256.6804 13.22428995 98635
ONEWEB-0015             
1 61594U 24188A   25084.91667824  .00000014  00000+0  00000+0 0  9993
2 61594  87.8115 110.5172 0007611  62.1585 163.9964 13.32309542 23753
ONEWEB-0687             
1 61595U 24188B   25084.90375346 -.00219478  00000+0 -30753-1 0  9996
2 61595  86.6083 103.2233 0006924  57.6581 302.5310 14.78950963 26190
ONEWEB-0688             
1 61596U 24188C   25084.02524801 -.00130498  00000+0 -16198-1 0  9993
2 61596  86.5721 103.6191 0006056  70.9475 289.2404 14.83489558 26066
ONEWEB-0689             
1 61597U 24188D   25084.91667824  .00000014  00000+0  00000+0 0  9996
2 61597  87.6748 110.5817 0004781  60.5737 123.5596 13.39316333 23798
ONEWEB-0690             
1 61598U 24188E   25084.91667824  .00000015  00000+0  00000+0 0  9998
2 61598  87.7906 110.5575 0009622  64.9129  66.2549 13.74930182 23917
ONEWEB-0691             
1 61599U 24188F   25084.91667824  .00000014  00000+0  00000+0 0  9998
2 61599  87.6841 110.5757 0006745  47.1366 316.4539 13.42124238  5513
ONEWEB-0692             
1 61600U 24188G   25084.91667824  .00000014  00000+0  00000+0 0  9991
2 61600  87.6745 110.5853 0004951  74.7552 268.6476 13.41172315 23905
ONEWEB-0693             
1 61601U 24188H   25084.91667824 -.00996864  00000+0 -15684+0 0  9995
2 61601  86.6292 103.1092 0005132  77.7991 299.4176 14.75419584  5726
ONEWEB-0695             
1 61602U 24188J   25084.91667824  .00000014  00000+0  00000+0 0  9993
2 61602  87.6532 110.6025 0004973  68.1755 111.8082 13.41735192 23921
ONEWEB-0697             
1 61603U 24188K   25084.91667824  .00000014  00000+0  00000+0 0  9994
2 61603  87.6677 110.5865 0003344  95.9433 217.1213 13.40127680 23938
ONEWEB-0698             
1 61604U 24188L   25084.91667824  .00000014  00000+0  00000+0 0  9995
2 61604  87.6590 110.6050 0006564  64.0149 294.8537 13.41854162 23729
ONEWEB-0699             
1 61605U 24188M   25083.85162838 -.00001576  00000+0 -45503-2 0  9999
2 61605  87.8825 125.8362 0001936  83.3628 276.7719 13.10383442 24468
ONEWEB-0700             
1 61606U 24188N   25084.84590265 -.00000014  00000+0 -75542-4 0  9993
2 61606  87.8741 125.6218 0001276  97.3727 262.7546 13.10379643 24580
ONEWEB-0701             
1 61607U 24188P   25084.86254517  .00000664  00000+0  18653-2 0  9990
2 61607  87.8825 125.6414 0001477  72.5023 287.6266 13.10370713 24594
ONEWEB-0702             
1 61608U 24188Q   25084.91667824  .00000014  00000+0  00000+0 0  9999
2 61608  87.6964 110.5986 0008092  64.2231   4.7553 13.43494347 23775
ONEWEB-0704             
1 61609U 24188R   25084.85091578  .00000220  00000+0  59488-3 0  9997
2 61609  87.8855 125.5512 0001012  83.3738 276.7504 13.10375938 24571
ONEWEB-0705             
1 61610U 24188S   25084.85590672  .00001764  00000+0  50157-2 0  9995
2 61610  87.8813 125.6404 0001171 131.4860 228.6368 13.10389162 16743
ONEWEB-0706             
1 61611U 24188T   25084.83010211  .00000057  00000+0  10421-3 0  9995
2 61611  87.9309 125.6413 0002175 128.3992 231.7338 13.23002516 24640
